{
  "type": "FeatureCollection",
  "features": [
    {
      "type": "Feature",
      "properties": {
        "norad_id": 33939,
        "name": "COSMOS 2251 DEB",
        "group": "cosmos-2251-debris",
        "lat": -25.24610416319064,
        "lon": -78.85939126501039,
        "alt_km": 575.4428572774195,
        "timestamp": "2025-12-06T11:28:11.455334+00:00",
        "meta_object_name": "COSMOS 2251 DEB",
        "meta_object_id": "1993-036EU",
        "meta_epoch": "2025-12-05T18:32:12.023232",
        "meta_mean_motion": 14.99046483,
        "meta_eccentricity": 0.00029489,
        "meta_inclination": 74.0076,
        "meta_ra_of_asc_node": 94.8019,
        "meta_arg_of_pericenter": 100.9299,
        "meta_mean_anomaly": 259.2219,
        "meta_ephemeris_type": 0,
        "meta_classification_type": "U",
        "meta_norad_cat_id": 33939,
        "meta_element_set_no": 999,
        "meta_rev_at_epoch": 88648,
        "meta_bstar": 0.0055370627,
        "meta_mean_motion_dot": 0.00067819,
        "meta_mean_motion_ddot": 0,
        "tle_line1": "1 33939U 93036EU  25339.77236138  .00067819  00000+0  55371-2 0  9990",
        "tle_line2": "2 33939  74.0076  94.8019 0002948 100.9299 259.2219 14.99046483886489"
      },
      "geometry": {
        "type": "Point",
        "coordinates": [
          -78.85939126501039,
          -25.24610416319064
        ]
      }
    },
    {
      "type": "Feature",
      "properties": {
        "norad_id": 33940,
        "name": "COSMOS 2251 DEB",
        "group": "cosmos-2251-debris",
        "lat": 5.0030267224550595,
        "lon": -26.01706693004435,
        "alt_km": 695.2147031103095,
        "timestamp": "2025-12-06T11:28:11.455344+00:00",
        "meta_object_name": "COSMOS 2251 DEB",
        "meta_object_id": "1993-036EV",
        "meta_epoch": "2025-12-05T22:03:05.094144",
        "meta_mean_motion": 14.58688979,
        "meta_eccentricity": 0.00116079,
        "meta_inclination": 74.0382,
        "meta_ra_of_asc_node": 156.4827,
        "meta_arg_of_pericenter": 235.7578,
        "meta_mean_anomaly": 244.2364,
        "meta_ephemeris_type": 0,
        "meta_classification_type": "U",
        "meta_norad_cat_id": 33940,
        "meta_element_set_no": 999,
        "meta_rev_at_epoch": 88494,
        "meta_bstar": 0.0017220264,
        "meta_mean_motion_dot": 8.019e-05,
        "meta_mean_motion_ddot": 0,
        "tle_line1": "1 33940U 93036EV  25339.91880896  .00008019  00000+0  17220-2 0  9992",
        "tle_line2": "2 33940  74.0382 156.4827 0011607 235.7578 244.2364 14.58688979884943"
      },
      "geometry": {
        "type": "Point",
        "coordinates": [
          -26.01706693004435,
          5.0030267224550595
        ]
      }
    },
    {
      "type": "Feature",
      "properties": {
        "norad_id": 33942,
        "name": "COSMOS 2251 DEB",
        "group": "cosmos-2251-debris",
        "lat": 56.40334420990168,
        "lon": 80.83703057043178,
        "alt_km": 764.0561600840701,
        "timestamp": "2025-12-06T11:28:11.455354+00:00",
        "meta_object_name": "COSMOS 2251 DEB",
        "meta_object_id": "1993-036EX",
        "meta_epoch": "2025-12-05T23:34:13.162656",
        "meta_mean_motion": 14.3797225,
        "meta_eccentricity": 0.00200075,
        "meta_inclination": 74.0362,
        "meta_ra_of_asc_node": 287.2739,
        "meta_arg_of_pericenter": 12.0248,
        "meta_mean_anomaly": 62.0166,
        "meta_ephemeris_type": 0,
        "meta_classification_type": "U",
        "meta_norad_cat_id": 33942,
        "meta_element_set_no": 999,
        "meta_rev_at_epoch": 88037,
        "meta_bstar": 0.00043983032,
        "meta_mean_motion_dot": 1.306e-05,
        "meta_mean_motion_ddot": 0,
        "tle_line1": "1 33942U 93036EX  25339.98209679  .00001306  00000+0  43983-3 0  9993",
        "tle_line2": "2 33942  74.0362 287.2739 0020007  12.0248  62.0166 14.37972250880376"
      },
      "geometry": {
        "type": "Point",
        "coordinates": [
          80.83703057043178,
          56.40334420990168
        ]
      }
    },
    {
      "type": "Feature",
      "properties": {
        "norad_id": 33944,
        "name": "COSMOS 2251 DEB",
        "group": "cosmos-2251-debris",
        "lat": 7.341013513416934,
        "lon": -37.439607167479735,
        "alt_km": 721.3059238714313,
        "timestamp": "2025-12-06T11:28:11.455364+00:00",
        "meta_object_name": "COSMOS 2251 DEB",
        "meta_object_id": "1993-036EZ",
        "meta_epoch": "2025-12-05T17:52:31.179648",
        "meta_mean_motion": 14.37320041,
        "meta_eccentricity": 0.01119678,
        "meta_inclination": 74.04,
        "meta_ra_of_asc_node": 321.7957,
        "meta_arg_of_pericenter": 63.239,
        "meta_mean_anomaly": 113.7251,
        "meta_ephemeris_type": 0,
        "meta_classification_type": "U",
        "meta_norad_cat_id": 33944,
        "meta_element_set_no": 999,
        "meta_rev_at_epoch": 87927,
        "meta_bstar": 0.00054482697,
        "meta_mean_motion_dot": 1.721e-05,
        "meta_mean_motion_ddot": 0,
        "tle_line1": "1 33944U 93036EZ  25339.74480532  .00001721  00000+0  54483-3 0  9996",
        "tle_line2": "2 33944  74.0400 321.7957 0111967  63.2390 113.7251 14.37320041879270"
      },
      "geometry": {
        "type": "Point",
        "coordinates": [
          -37.439607167479735,
          7.341013513416934
        ]
      }
    },
    {
      "type": "Feature",
      "properties": {
        "norad_id": 33945,
        "name": "COSMOS 2251 DEB",
        "group": "cosmos-2251-debris",
        "lat": -41.25802372580378,
        "lon": 152.2916492939802,
        "alt_km": 798.1041950667723,
        "timestamp": "2025-12-06T11:28:11.455374+00:00",
        "meta_object_name": "COSMOS 2251 DEB",
        "meta_object_id": "1993-036FA",
        "meta_epoch": "2025-12-05T22:43:05.490048",
        "meta_mean_motion": 14.34591955,
        "meta_eccentricity": 0.00216541,
        "meta_inclination": 74.0293,
        "meta_ra_of_asc_node": 318.7153,
        "meta_arg_of_pericenter": 47.1326,
        "meta_mean_anomaly": 313.164,
        "meta_ephemeris_type": 0,
        "meta_classification_type": "U",
        "meta_norad_cat_id": 33945,
        "meta_element_set_no": 999,
        "meta_rev_at_epoch": 87918,
        "meta_bstar": 0.00024211425,
        "meta_mean_motion_dot": 6.6e-06,
        "meta_mean_motion_ddot": 0,
        "tle_line1": "1 33945U 93036FA  25339.94659132  .00000660  00000+0  24211-3 0  9990",
        "tle_line2": "2 33945  74.0293 318.7153 0021654  47.1326 313.1640 14.34591955879187"
      },
      "geometry": {
        "type": "Point",
        "coordinates": [
          152.2916492939802,
          -41.25802372580378
        ]
      }
    },
    {
      "type": "Feature",
      "properties": {
        "norad_id": 33948,
        "name": "COSMOS 2251 DEB",
        "group": "cosmos-2251-debris",
        "lat": 46.552529853139376,
        "lon": -25.78499064507896,
        "alt_km": 753.0729916480877,
        "timestamp": "2025-12-06T11:28:11.455385+00:00",
        "meta_object_name": "COSMOS 2251 DEB",
        "meta_object_id": "1993-036FD",
        "meta_epoch": "2025-12-05T23:32:10.454784",
        "meta_mean_motion": 14.35616364,
        "meta_eccentricity": 0.00224192,
        "meta_inclination": 74.035,
        "meta_ra_of_asc_node": 317.536,
        "meta_arg_of_pericenter": 35.2955,
        "meta_mean_anomaly": 324.9677,
        "meta_ephemeris_type": 0,
        "meta_classification_type": "U",
        "meta_norad_cat_id": 33948,
        "meta_element_set_no": 999,
        "meta_rev_at_epoch": 87926,
        "meta_bstar": 0.0003497084,
        "meta_mean_motion_dot": 9.85e-06,
        "meta_mean_motion_ddot": 0,
        "tle_line1": "1 33948U 93036FD  25339.98067656  .00000985  00000+0  34971-3 0  9995",
        "tle_line2": "2 33948  74.0350 317.5360 0022419  35.2955 324.9677 14.35616364879269"
      },
      "geometry": {
        "type": "Point",
        "coordinates": [
          -25.78499064507896,
          46.552529853139376
        ]
      }
    },
    {
      "type": "Feature",
      "properties": {
        "norad_id": 33971,
        "name": "COSMOS 2251 DEB",
        "group": "cosmos-2251-debris",
        "lat": 23.63398349830349,
        "lon": -87.49319578322125,
        "alt_km": 746.2083035284095,
        "timestamp": "2025-12-06T11:28:11.455394+00:00",
        "meta_object_name": "COSMOS 2251 DEB",
        "meta_object_id": "1993-036FE",
        "meta_epoch": "2025-12-05T20:36:22.798944",
        "meta_mean_motion": 14.39705125,
        "meta_eccentricity": 0.00182114,
        "meta_inclination": 74.0249,
        "meta_ra_of_asc_node": 266.4497,
        "meta_arg_of_pericenter": 8.2113,
        "meta_mean_anomaly": 47.9017,
        "meta_ephemeris_type": 0,
        "meta_classification_type": "U",
        "meta_norad_cat_id": 33971,
        "meta_element_set_no": 999,
        "meta_rev_at_epoch": 88040,
        "meta_bstar": 0.00058064821,
        "meta_mean_motion_dot": 1.795e-05,
        "meta_mean_motion_ddot": 0,
        "tle_line1": "1 33971U 93036FE  25339.85859721  .00001795  00000+0  58065-3 0  9999",
        "tle_line2": "2 33971  74.0249 266.4497 0018211   8.2113  47.9017 14.39705125880402"
      },
      "geometry": {
        "type": "Point",
        "coordinates": [
          -87.49319578322125,
          23.63398349830349
        ]
      }
    }
  ]
}